STARLINK-32777          
1 62525U 25004Q   26068.48738830  .00034548  00000+0  12579-2 0  9993
2 62525  43.0031 221.3646 0002890 279.5480  80.5044 15.27610049 66425
FLOCK 4G-26             
1 62633U 25009AA  26068.80489479  .00011283  00000+0  42469-3 0  9999
2 62633  97.4054 151.3913 0001988 299.1273  60.9767 15.27281631 63733
